[{"OBJECT_ID":"1973-086BU","OBJECT_NAME":"DELTA 1 DEB","NORAD_CAT_ID":"7076","OBJECT_TYPE":"DEBRIS","PERIOD":"116.151","INCLINATION":"102.1083","ECCENTRICITY":"0.00126800","MEAN_MOTION":"12.39762554","TLE_LINE1":"1  7076U 73086BU  21271.49189326 -.00000022  00000-0  17603-3 0  9994","TLE_LINE2":"2  7076 102.1083 241.3115 0012680   1.2701 110.5935 12.39762554167071"},{"OBJECT_ID":"1973-086BX","OBJECT_NAME":"DELTA 1 DEB","NORAD_CAT_ID":"7079","OBJECT_TYPE":"DEBRIS","PERIOD":"116.683","INCLINATION":"101.7543","ECCENTRICITY":"0.00394200","MEAN_MOTION":"12.34116383","TLE_LINE1":"1 07079U 73086BX  21271.50485743 -.00000040  00000-0  16364-4 0  9995","TLE_LINE2":"2 07079 101.7543 281.2680 0039420 158.4619 356.0197 12.34116383150565"},{"OBJECT_ID":"1973-086BY","OBJECT_NAME":"DELTA 1 DEB","NORAD_CAT_ID":"7080","OBJECT_TYPE":"DEBRIS","PERIOD":"113.740","INCLINATION":"101.8980","ECCENTRICITY":"0.00585490","MEAN_MOTION":"12.66046809","TLE_LINE1":"1  7080U 73086BY  21272.32636212  .00000859  00000-0  47836-2 0  9990","TLE_LINE2":"2  7080 101.8980 190.9817 0058549 340.3390 139.3148 12.66046809191868"},{"OBJECT_ID":"1973-086BZ","OBJECT_NAME":"DELTA 1 DEB","NORAD_CAT_ID":"7081","OBJECT_TYPE":"DEBRIS","PERIOD":"113.425","INCLINATION":"102.3261","ECCENTRICITY":"0.01645890","MEAN_MOTION":"12.69561344","TLE_LINE1":"1  7081U 73086BZ  21271.71784450 -.00000026  00000-0  12132-3 0  9990","TLE_LINE2":"2  7081 102.3261 251.9334 0164589 222.3112 312.3430 12.69561344217272"},{"OBJECT_ID":"1973-086CA","OBJECT_NAME":"DELTA 1 DEB","NORAD_CAT_ID":"7082","OBJECT_TYPE":"DEBRIS","PERIOD":"114.302","INCLINATION":"101.8914","ECCENTRICITY":"0.00301830","MEAN_MOTION":"12.59819614","TLE_LINE1":"1 07082U 73086CA  21271.45258424  .00000205  00000-0  14516-2 0  9994","TLE_LINE2":"2 07082 101.8914 104.0454 0030183  30.5126  33.6828 12.59819614191662"},{"OBJECT_ID":"1973-086CB","OBJECT_NAME":"DELTA 1 DEB","NORAD_CAT_ID":"7083","OBJECT_TYPE":"DEBRIS","PERIOD":"116.866","INCLINATION":"102.3478","ECCENTRICITY":"0.00663260","MEAN_MOTION":"12.32181833","TLE_LINE1":"1 07083U 73086CB  21271.40735225  .00000016  00000-0  50258-3 0  9993","TLE_LINE2":"2 07083 102.3478 250.1973 0066326  52.0893 103.0997 12.32181833151741"},{"OBJECT_ID":"1973-086CC","OBJECT_NAME":"DELTA 1 DEB","NORAD_CAT_ID":"7084","OBJECT_TYPE":"DEBRIS","PERIOD":"117.539","INCLINATION":"101.7168","ECCENTRICITY":"0.01527490","MEAN_MOTION":"12.25129229","TLE_LINE1":"1 07084U 73086CC  21271.34066137 -.00000044  00000-0 -15368-4 0  9993","TLE_LINE2":"2 07084 101.7168 295.0094 0152749 259.0798 110.0869 12.25129229141299"},{"OBJECT_ID":"1973-086CD","OBJECT_NAME":"DELTA 1 DEB","NORAD_CAT_ID":"7085","OBJECT_TYPE":"DEBRIS","PERIOD":"114.308","INCLINATION":"102.0635","ECCENTRICITY":"0.00969340","MEAN_MOTION":"12.59757804","TLE_LINE1":"1  7085U 73086CD  21271.52797649  .00000039  00000-0  49582-3 0  9999","TLE_LINE2":"2  7085 102.0635 352.5203 0096934 285.2513  89.9537 12.59757804199374"},{"OBJECT_ID":"1973-086CE","OBJECT_NAME":"DELTA 1 DEB","NORAD_CAT_ID":"7086","OBJECT_TYPE":"DEBRIS","PERIOD":"116.068","INCLINATION":"101.9001","ECCENTRICITY":"0.00122960","MEAN_MOTION":"12.40656629","TLE_LINE1":"1 07086U 73086CE  21271.49844056  .00000001  00000-0  33777-3 0  9999","TLE_LINE2":"2 07086 101.9001 236.6188 0012296 170.4594 308.1416 12.40656629167333"},{"OBJECT_ID":"1973-086CF","OBJECT_NAME":"DELTA 1 DEB","NORAD_CAT_ID":"7087","OBJECT_TYPE":"DEBRIS","PERIOD":"103.901","INCLINATION":"102.1485","ECCENTRICITY":"0.01733570","MEAN_MOTION":"13.85929458","TLE_LINE1":"1  7087U 73086CF  21272.28965637  .00007215  00000-0  56259-2 0  9990","TLE_LINE2":"2  7087 102.1485  39.6497 0173357  85.8883 276.2054 13.85929458959484"},{"OBJECT_ID":"1973-086CG","OBJECT_NAME":"DELTA 1 DEB","NORAD_CAT_ID":"7088","OBJECT_TYPE":"DEBRIS","PERIOD":"112.267","INCLINATION":"102.3990","ECCENTRICITY":"0.02606140","MEAN_MOTION":"12.82661333","TLE_LINE1":"1 07088U 73086CG  21271.47785212  .00000318  00000-0  13662-2 0  9998","TLE_LINE2":"2 07088 102.3990 352.1365 0260614 274.5336  96.1131 12.82661333231511"},{"OBJECT_ID":"1973-086CK","OBJECT_NAME":"DELTA 1 DEB","NORAD_CAT_ID":"7091","OBJECT_TYPE":"DEBRIS","PERIOD":"120.390","INCLINATION":"102.1188","ECCENTRICITY":"0.02823710","MEAN_MOTION":"11.96109387","TLE_LINE1":"1 07091U 73086CK  21271.12620458 -.00000041  00000-0 -10518-4 0  9998","TLE_LINE2":"2 07091 102.1188 150.1772 0282371 202.2808 317.0349 11.96109387 90087"},{"OBJECT_ID":"1973-086CL","OBJECT_NAME":"DELTA 1 DEB","NORAD_CAT_ID":"7092","OBJECT_TYPE":"DEBRIS","PERIOD":"110.246","INCLINATION":"101.8095","ECCENTRICITY":"0.03187120","MEAN_MOTION":"13.06173426","TLE_LINE1":"1  7092U 73086CL  21271.59669041  .00000150  00000-0  47705-3 0  9997","TLE_LINE2":"2  7092 101.8095  18.8377 0318712 101.2002 277.0377 13.06173426277941"},{"OBJECT_ID":"1973-086CM","OBJECT_NAME":"DELTA 1 DEB","NORAD_CAT_ID":"7093","OBJECT_TYPE":"DEBRIS","PERIOD":"117.365","INCLINATION":"102.5630","ECCENTRICITY":"0.00710570","MEAN_MOTION":"12.26944556","TLE_LINE1":"1  7093U 73086CM  21271.85416997 -.00000022  00000-0  20617-3 0  9999","TLE_LINE2":"2  7093 102.5630 257.9623 0071057  58.0974  57.3449 12.26944556134290"},{"OBJECT_ID":"1973-086CN","OBJECT_NAME":"DELTA 1 DEB","NORAD_CAT_ID":"7124","OBJECT_TYPE":"DEBRIS","PERIOD":"117.070","INCLINATION":"102.4830","ECCENTRICITY":"0.00532460","MEAN_MOTION":"12.30036005","TLE_LINE1":"1 07124U 73086CN  21271.44078318 -.00000036  00000-0  80033-4 0  9994","TLE_LINE2":"2 07124 102.4830 258.6647 0053246  93.3064  61.2534 12.30036005149967"},{"OBJECT_ID":"1973-086CQ","OBJECT_NAME":"DELTA 1 DEB","NORAD_CAT_ID":"7126","OBJECT_TYPE":"DEBRIS","PERIOD":"116.174","INCLINATION":"101.8109","ECCENTRICITY":"0.02826270","MEAN_MOTION":"12.39524008","TLE_LINE1":"1  7126U 73086CQ  21272.43022737  .00000030  00000-0  49267-3 0  9996","TLE_LINE2":"2  7126 101.8109 257.3266 0282627 252.2144 266.1195 12.39524008161143"},{"OBJECT_ID":"1973-086CR","OBJECT_NAME":"DELTA 1 DEB","NORAD_CAT_ID":"7127","OBJECT_TYPE":"DEBRIS","PERIOD":"119.930","INCLINATION":"101.9497","ECCENTRICITY":"0.02662060","MEAN_MOTION":"12.00703725","TLE_LINE1":"1 07127U 73086CR  21271.36040970 -.00000209  00000-0 -18890-2 0  9994","TLE_LINE2":"2 07127 101.9497  55.4245 0266206  50.4166   5.9766 12.00703725 98343"},{"OBJECT_ID":"1973-086CS","OBJECT_NAME":"DELTA 1 DEB","NORAD_CAT_ID":"7128","OBJECT_TYPE":"DEBRIS","PERIOD":"113.883","INCLINATION":"101.6234","ECCENTRICITY":"0.00357540","MEAN_MOTION":"12.64459182","TLE_LINE1":"1  7128U 73086CS  21272.21103958  .00000429  00000-0  25691-2 0  9995","TLE_LINE2":"2  7128 101.6234 359.2598 0035754 216.1696 171.9004 12.64459182196171"},{"OBJECT_ID":"1973-086CT","OBJECT_NAME":"DELTA 1 DEB","NORAD_CAT_ID":"7129","OBJECT_TYPE":"DEBRIS","PERIOD":"119.604","INCLINATION":"102.0510","ECCENTRICITY":"0.02509610","MEAN_MOTION":"12.03971381","TLE_LINE1":"1  7129U 73086CT  21272.40817506  .00000804  00000-0  90641-2 0  9992","TLE_LINE2":"2  7129 102.0510 228.8587 0250961  82.1787  37.2114 12.03971381100437"},{"OBJECT_ID":"1973-086CU","OBJECT_NAME":"DELTA 1 DEB","NORAD_CAT_ID":"7130","OBJECT_TYPE":"DEBRIS","PERIOD":"108.958","INCLINATION":"102.4268","ECCENTRICITY":"0.00555600","MEAN_MOTION":"13.21615448","TLE_LINE1":"1  7130U 73086CU  21272.25739152  .00002200  00000-0  54343-2 0  9998","TLE_LINE2":"2  7130 102.4268  32.9349 0055560 110.5665 283.1830 13.21615448233098"},{"OBJECT_ID":"1973-086CV","OBJECT_NAME":"DELTA 1 DEB","NORAD_CAT_ID":"7131","OBJECT_TYPE":"DEBRIS","PERIOD":"118.622","INCLINATION":"101.8773","ECCENTRICITY":"0.01769860","MEAN_MOTION":"12.13935214","TLE_LINE1":"1 07131U 73086CV  21271.35587021  .00000081  00000-0  11992-2 0  9993","TLE_LINE2":"2 07131 101.8773 308.0549 0176986 101.5251 329.3753 12.13935214116283"},{"OBJECT_ID":"1973-086CW","OBJECT_NAME":"DELTA 1 DEB","NORAD_CAT_ID":"7132","OBJECT_TYPE":"DEBRIS","PERIOD":"116.048","INCLINATION":"102.0086","ECCENTRICITY":"0.00220840","MEAN_MOTION":"12.40864002","TLE_LINE1":"1 07132U 73086CW  21271.43096103  .00000062  00000-0  79281-3 0  9994","TLE_LINE2":"2 07132 102.0086 232.9066 0022084 308.7003 176.0566 12.40864002165962"},{"OBJECT_ID":"1973-086CX","OBJECT_NAME":"DELTA 1 DEB","NORAD_CAT_ID":"7133","OBJECT_TYPE":"DEBRIS","PERIOD":"116.025","INCLINATION":"101.8224","ECCENTRICITY":"0.00389970","MEAN_MOTION":"12.41114777","TLE_LINE1":"1 07133U 73086CX  21271.41588759 -.00000103  00000-0 -43697-3 0  9996","TLE_LINE2":"2 07133 101.8224 335.5242 0038997 330.9018  41.7776 12.41114777166592"},{"OBJECT_ID":"1973-086CY","OBJECT_NAME":"DELTA 1 DEB","NORAD_CAT_ID":"7134","OBJECT_TYPE":"DEBRIS","PERIOD":"114.985","INCLINATION":"101.8321","ECCENTRICITY":"0.00148280","MEAN_MOTION":"12.52332750","TLE_LINE1":"1  7134U 73086CY  21272.24374201 -.00000301  00000-0 -16278-2 0  9998","TLE_LINE2":"2  7134 101.8321  29.1151 0014828 340.5282  52.0001 12.52332750184640"},{"OBJECT_ID":"1973-086CZ","OBJECT_NAME":"DELTA 1 DEB","NORAD_CAT_ID":"7135","OBJECT_TYPE":"DEBRIS","PERIOD":"114.050","INCLINATION":"102.2384","ECCENTRICITY":"0.01309230","MEAN_MOTION":"12.62600752","TLE_LINE1":"1 07135U 73086CZ  21271.44287595 -.00000169  00000-0 -64645-3 0  9993","TLE_LINE2":"2 07135 102.2384 132.5943 0130923 117.4332 244.0129 12.62600752196126"},{"OBJECT_ID":"1973-086DA","OBJECT_NAME":"DELTA 1 DEB","NORAD_CAT_ID":"7136","OBJECT_TYPE":"DEBRIS","PERIOD":"114.932","INCLINATION":"101.4615","ECCENTRICITY":"0.00473840","MEAN_MOTION":"12.52910670","TLE_LINE1":"1  7136U 73086DA  21271.77884419  .00000116  00000-0  10030-2 0  9996","TLE_LINE2":"2  7136 101.4615 274.7797 0047384 200.4881 335.2957 12.52910670186135"},{"OBJECT_ID":"1973-086DB","OBJECT_NAME":"DELTA 1 DEB","NORAD_CAT_ID":"7137","OBJECT_TYPE":"DEBRIS","PERIOD":"114.499","INCLINATION":"101.5601","ECCENTRICITY":"0.00393410","MEAN_MOTION":"12.57650767","TLE_LINE1":"1  7137U 73086DB  21271.67938836  .00000194  00000-0  14124-2 0  9993","TLE_LINE2":"2  7137 101.5601 247.1095 0039341 244.9720 291.8715 12.57650767190436"}]